{
  "type": "FeatureCollection",
  "features": [
    {
      "type": "Feature",
      "properties": {
        "norad_id": 44873,
        "name": "CSG-1",
        "group": "resource",
        "lat": -1.66515007500061,
        "lon": -18.33462292721725,
        "alt_km": 625.9076116302967,
        "timestamp": "2025-12-06T11:28:10.687000+00:00",
        "meta_object_name": "CSG-1",
        "meta_object_id": "2019-092A",
        "meta_epoch": "2025-12-05T23:18:40.947264",
        "meta_mean_motion": 14.82149313,
        "meta_eccentricity": 0.00014608,
        "meta_inclination": 97.8813,
        "meta_ra_of_asc_node": 161.3973,
        "meta_arg_of_pericenter": 86.2443,
        "meta_mean_anomaly": 273.8937,
        "meta_ephemeris_type": 0,
        "meta_classification_type": "U",
        "meta_norad_cat_id": 44873,
        "meta_element_set_no": 999,
        "meta_rev_at_epoch": 32285,
        "meta_bstar": 0.00015543783,
        "meta_mean_motion_dot": 1.185e-05,
        "meta_mean_motion_ddot": 0,
        "tle_line1": "1 44873U 19092A   25339.97130726  .00001185  00000+0  15544-3 0  9990",
        "tle_line2": "2 44873  97.8813 161.3973 0001460  86.2443 273.8937 14.82149313322857"
      },
      "geometry": {
        "type": "Point",
        "coordinates": [
          -18.33462292721725,
          -1.66515007500061
        ]
      }
    },
    {
      "type": "Feature",
      "properties": {
        "norad_id": 46277,
        "name": "NEMO-HD",
        "group": "resource",
        "lat": 65.39404888129297,
        "lon": -124.26745350587359,
        "alt_km": 438.40077709270463,
        "timestamp": "2025-12-06T11:28:10.687011+00:00",
        "meta_object_name": "NEMO-HD",
        "meta_object_id": "2020-061F",
        "meta_epoch": "2025-12-05T22:30:14.128992",
        "meta_mean_motion": 15.40119053,
        "meta_eccentricity": 0.00022435,
        "meta_inclination": 97.2222,
        "meta_ra_of_asc_node": 39.1235,
        "meta_arg_of_pericenter": 64.4809,
        "meta_mean_anomaly": 295.6669,
        "meta_ephemeris_type": 0,
        "meta_classification_type": "U",
        "meta_norad_cat_id": 46277,
        "meta_element_set_no": 999,
        "meta_rev_at_epoch": 29219,
        "meta_bstar": 0.00039824316,
        "meta_mean_motion_dot": 0.00015884,
        "meta_mean_motion_ddot": 0,
        "tle_line1": "1 46277U 20061F   25339.93766353  .00015884  00000+0  39824-3 0  9993",
        "tle_line2": "2 46277  97.2222  39.1235 0002243  64.4809 295.6669 15.40119053292192"
      },
      "geometry": {
        "type": "Point",
        "coordinates": [
          -124.26745350587359,
          65.39404888129297
        ]
      }
    },
    {
      "type": "Feature",
      "properties": {
        "norad_id": 46984,
        "name": "SENTINEL-6A",
        "group": "resource",
        "lat": 23.99672406806979,
        "lon": -173.26871285873455,
        "alt_km": 1338.8890472594148,
        "timestamp": "2025-12-06T11:28:10.687021+00:00",
        "meta_object_name": "SENTINEL-6A",
        "meta_object_id": "2020-086A",
        "meta_epoch": "2025-12-05T22:12:55.233792",
        "meta_mean_motion": 12.80930287,
        "meta_eccentricity": 0.00077362,
        "meta_inclination": 66.0392,
        "meta_ra_of_asc_node": 176.4614,
        "meta_arg_of_pericenter": 269.181,
        "meta_mean_anomaly": 90.8319,
        "meta_ephemeris_type": 0,
        "meta_classification_type": "U",
        "meta_norad_cat_id": 46984,
        "meta_element_set_no": 999,
        "meta_rev_at_epoch": 23557,
        "meta_bstar": 0.00010730915,
        "meta_mean_motion_dot": -3.6e-07,
        "meta_mean_motion_ddot": 0,
        "tle_line1": "1 46984U 20086A   25339.92563928 -.00000036  00000+0  10731-3 0  9997",
        "tle_line2": "2 46984  66.0392 176.4614 0007736 269.1810  90.8319 12.80930287235570"
      },
      "geometry": {
        "type": "Point",
        "coordinates": [
          -173.26871285873455,
          23.99672406806979
        ]
      }
    },
    {
      "type": "Feature",
      "properties": {
        "norad_id": 48079,
        "name": "GAOFEN-12 02",
        "group": "resource",
        "lat": 63.462692556691266,
        "lon": 170.83850924512294,
        "alt_km": 618.6930234595084,
        "timestamp": "2025-12-06T11:28:10.687031+00:00",
        "meta_object_name": "GAOFEN-12 02",
        "meta_object_id": "2021-026A",
        "meta_epoch": "2025-12-05T23:35:51.109152",
        "meta_mean_motion": 14.80662282,
        "meta_eccentricity": 0.00033612,
        "meta_inclination": 97.9847,
        "meta_ra_of_asc_node": 334.0224,
        "meta_arg_of_pericenter": 114.4774,
        "meta_mean_anomaly": 245.6789,
        "meta_ephemeris_type": 0,
        "meta_classification_type": "U",
        "meta_norad_cat_id": 48079,
        "meta_element_set_no": 999,
        "meta_rev_at_epoch": 25317,
        "meta_bstar": 0.00013306933,
        "meta_mean_motion_dot": 9.7e-06,
        "meta_mean_motion_ddot": 0,
        "tle_line1": "1 48079U 21026A   25339.98323043  .00000970  00000+0  13307-3 0  9995",
        "tle_line2": "2 48079  97.9847 334.0224 0003361 114.4774 245.6789 14.80662282253171"
      },
      "geometry": {
        "type": "Point",
        "coordinates": [
          170.83850924512294,
          63.462692556691266
        ]
      }
    },
    {
      "type": "Feature",
      "properties": {
        "norad_id": 48268,
        "name": "PLEIADES NEO 3",
        "group": "resource",
        "lat": 19.90781058730137,
        "lon": -124.11086411156126,
        "alt_km": 623.8276082824596,
        "timestamp": "2025-12-06T11:28:10.687042+00:00",
        "meta_object_name": "PLEIADES NEO 3",
        "meta_object_id": "2021-034A",
        "meta_epoch": "2025-12-05T23:24:19.719936",
        "meta_mean_motion": 14.81671933,
        "meta_eccentricity": 0.00013055,
        "meta_inclination": 97.8949,
        "meta_ra_of_asc_node": 52.5132,
        "meta_arg_of_pericenter": 92.9711,
        "meta_mean_anomaly": 267.1652,
        "meta_ephemeris_type": 0,
        "meta_classification_type": "U",
        "meta_norad_cat_id": 48268,
        "meta_element_set_no": 999,
        "meta_rev_at_epoch": 24904,
        "meta_bstar": 2.644237e-05,
        "meta_mean_motion_dot": 1.56e-06,
        "meta_mean_motion_ddot": 0,
        "tle_line1": "1 48268U 21034A   25339.97522824  .00000156  00000+0  26442-4 0  9992",
        "tle_line2": "2 48268  97.8949  52.5132 0001305  92.9711 267.1652 14.81671933249043"
      },
      "geometry": {
        "type": "Point",
        "coordinates": [
          -124.11086411156126,
          19.90781058730137
        ]
      }
    },
    {
      "type": "Feature",
      "properties": {
        "norad_id": 49070,
        "name": "PLEIADES NEO 4",
        "group": "resource",
        "lat": -20.09531831917282,
        "lon": 55.914231736614134,
        "alt_km": 629.634355140498,
        "timestamp": "2025-12-06T11:28:10.687052+00:00",
        "meta_object_name": "PLEIADES NEO 4",
        "meta_object_id": "2021-073E",
        "meta_epoch": "2025-12-05T22:35:41.263584",
        "meta_mean_motion": 14.81672547,
        "meta_eccentricity": 0.00012577,
        "meta_inclination": 97.8949,
        "meta_ra_of_asc_node": 52.4755,
        "meta_arg_of_pericenter": 95.715,
        "meta_mean_anomaly": 264.4207,
        "meta_ephemeris_type": 0,
        "meta_classification_type": "U",
        "meta_norad_cat_id": 49070,
        "meta_element_set_no": 999,
        "meta_rev_at_epoch": 23275,
        "meta_bstar": -1.2433367e-05,
        "meta_mean_motion_dot": -1.5e-06,
        "meta_mean_motion_ddot": 0,
        "tle_line1": "1 49070U 21073E   25339.94144981 -.00000150  00000+0 -12433-4 0  9999",
        "tle_line2": "2 49070  97.8949  52.4755 0001257  95.7150 264.4207 14.81672547232757"
      },
      "geometry": {
        "type": "Point",
        "coordinates": [
          55.914231736614134,
          -20.09531831917282
        ]
      }
    },
    {
      "type": "Feature",
      "properties": {
        "norad_id": 49260,
        "name": "LANDSAT 9",
        "group": "resource",
        "lat": -9.206744419127952,
        "lon": -132.6615548937997,
        "alt_km": 706.6935682381782,
        "timestamp": "2025-12-06T11:28:10.687062+00:00",
        "meta_object_name": "LANDSAT 9",
        "meta_object_id": "2021-088A",
        "meta_epoch": "2025-12-05T18:07:25.074048",
        "meta_mean_motion": 14.57119267,
        "meta_eccentricity": 0.00010712,
        "meta_inclination": 98.2102,
        "meta_ra_of_asc_node": 47.9671,
        "meta_arg_of_pericenter": 93.1956,
        "meta_mean_anomaly": 266.9365,
        "meta_ephemeris_type": 0,
        "meta_classification_type": "U",
        "meta_norad_cat_id": 49260,
        "meta_element_set_no": 999,
        "meta_rev_at_epoch": 22283,
        "meta_bstar": 0.0002069972,
        "meta_mean_motion_dot": 8.88e-06,
        "meta_mean_motion_ddot": 0,
        "tle_line1": "1 49260U 21088A   25339.75515132  .00000888  00000+0  20700-3 0  9996",
        "tle_line2": "2 49260  98.2102  47.9671 0001071  93.1956 266.9365 14.57119267222838"
      },
      "geometry": {
        "type": "Point",
        "coordinates": [
          -132.6615548937997,
          -9.206744419127952
        ]
      }
    }
  ]
}